{
  "type": "FeatureCollection",
  "features": [
    {
      "type": "Feature",
      "properties": {
        "norad_id": 58647,
        "name": "TIANMU-1 13",
        "group": "weather",
        "lat": -63.9472210314642,
        "lon": 161.66369395123888,
        "alt_km": 498.19478169690046,
        "timestamp": "2025-12-03T04:52:29.284411+00:00",
        "meta_object_name": "TIANMU-1 13",
        "meta_object_id": "2023-205C",
        "meta_epoch": "2025-12-02T21:30:04.406112",
        "meta_mean_motion": 15.24326964,
        "meta_eccentricity": 0.0006439,
        "meta_inclination": 97.3629,
        "meta_ra_of_asc_node": 356.6994,
        "meta_arg_of_pericenter": 311.5004,
        "meta_mean_anomaly": 48.568,
        "meta_ephemeris_type": 0,
        "meta_classification_type": "U",
        "meta_norad_cat_id": 58647,
        "meta_element_set_no": 999,
        "meta_rev_at_epoch": 10757,
        "meta_bstar": 0.00034885,
        "meta_mean_motion_dot": 8.468e-05,
        "meta_mean_motion_ddot": 0,
        "tle_line1": "1 58647U 23205C   25336.89588433  .00008468  00000+0  34885-3 0  9995",
        "tle_line2": "2 58647  97.3629 356.6994 0006439 311.5004  48.5680 15.24326964107579"
      },
      "geometry": {
        "type": "Point",
        "coordinates": [
          161.66369395123888,
          -63.9472210314642
        ]
      }
    },
    {
      "type": "Feature",
      "properties": {
        "norad_id": 58648,
        "name": "TIANMU-1 14",
        "group": "weather",
        "lat": -23.336312680046145,
        "lon": -0.4461479058007621,
        "alt_km": 493.7146094771397,
        "timestamp": "2025-12-03T04:52:29.284421+00:00",
        "meta_object_name": "TIANMU-1 14",
        "meta_object_id": "2023-205D",
        "meta_epoch": "2025-12-02T21:06:01.018080",
        "meta_mean_motion": 15.2431148,
        "meta_eccentricity": 0.000735,
        "meta_inclination": 97.3561,
        "meta_ra_of_asc_node": 356.0409,
        "meta_arg_of_pericenter": 315.635,
        "meta_mean_anomaly": 44.4297,
        "meta_ephemeris_type": 0,
        "meta_classification_type": "U",
        "meta_norad_cat_id": 58648,
        "meta_element_set_no": 999,
        "meta_rev_at_epoch": 10757,
        "meta_bstar": 0.00036357,
        "meta_mean_motion_dot": 8.826e-05,
        "meta_mean_motion_ddot": 0,
        "tle_line1": "1 58648U 23205D   25336.87917845  .00008826  00000+0  36357-3 0  9991",
        "tle_line2": "2 58648  97.3561 356.0409 0007350 315.6350  44.4297 15.24311480107578"
      },
      "geometry": {
        "type": "Point",
        "coordinates": [
          -0.4461479058007621,
          -23.336312680046145
        ]
      }
    },
    {
      "type": "Feature",
      "properties": {
        "norad_id": 58660,
        "name": "TIANMU-1 19",
        "group": "weather",
        "lat": 60.75364176407293,
        "lon": -78.24444423108643,
        "alt_km": 480.04215429818305,
        "timestamp": "2025-12-03T04:52:29.284431+00:00",
        "meta_object_name": "TIANMU-1 19",
        "meta_object_id": "2023-208A",
        "meta_epoch": "2025-12-02T20:29:52.041120",
        "meta_mean_motion": 15.27560905,
        "meta_eccentricity": 0.0004125,
        "meta_inclination": 97.4391,
        "meta_ra_of_asc_node": 87.913,
        "meta_arg_of_pericenter": 297.0474,
        "meta_mean_anomaly": 63.0344,
        "meta_ephemeris_type": 0,
        "meta_classification_type": "U",
        "meta_norad_cat_id": 58660,
        "meta_element_set_no": 999,
        "meta_rev_at_epoch": 10731,
        "meta_bstar": 0.00046435,
        "meta_mean_motion_dot": 0.00012453,
        "meta_mean_motion_ddot": 0,
        "tle_line1": "1 58660U 23208A   25336.85407455  .00012453  00000+0  46435-3 0  9996",
        "tle_line2": "2 58660  97.4391  87.9130 0004125 297.0474  63.0344 15.27560905107315"
      },
      "geometry": {
        "type": "Point",
        "coordinates": [
          -78.24444423108643,
          60.75364176407293
        ]
      }
    },
    {
      "type": "Feature",
      "properties": {
        "norad_id": 58661,
        "name": "TIANMU-1 20",
        "group": "weather",
        "lat": 27.956971873518086,
        "lon": -87.32736913011914,
        "alt_km": 482.40672584940694,
        "timestamp": "2025-12-03T04:52:29.284442+00:00",
        "meta_object_name": "TIANMU-1 20",
        "meta_object_id": "2023-208B",
        "meta_epoch": "2025-12-02T20:21:30.592800",
        "meta_mean_motion": 15.2875401,
        "meta_eccentricity": 0.0006493,
        "meta_inclination": 97.4329,
        "meta_ra_of_asc_node": 88.3451,
        "meta_arg_of_pericenter": 307.0604,
        "meta_mean_anomaly": 53.0041,
        "meta_ephemeris_type": 0,
        "meta_classification_type": "U",
        "meta_norad_cat_id": 58661,
        "meta_element_set_no": 999,
        "meta_rev_at_epoch": 10738,
        "meta_bstar": 0.00044172,
        "meta_mean_motion_dot": 0.00012286,
        "meta_mean_motion_ddot": 0,
        "tle_line1": "1 58661U 23208B   25336.84827075  .00012286  00000+0  44172-3 0  9990",
        "tle_line2": "2 58661  97.4329  88.3451 0006493 307.0604  53.0041 15.28754010107388"
      },
      "geometry": {
        "type": "Point",
        "coordinates": [
          -87.32736913011914,
          27.956971873518086
        ]
      }
    },
    {
      "type": "Feature",
      "properties": {
        "norad_id": 58662,
        "name": "TIANMU-1 21",
        "group": "weather",
        "lat": 69.8001544305024,
        "lon": 69.76839609222657,
        "alt_km": 468.11549255466434,
        "timestamp": "2025-12-03T04:52:29.284452+00:00",
        "meta_object_name": "TIANMU-1 21",
        "meta_object_id": "2023-208C",
        "meta_epoch": "2025-12-02T20:43:23.380320",
        "meta_mean_motion": 15.31215503,
        "meta_eccentricity": 0.0006003,
        "meta_inclination": 97.4375,
        "meta_ra_of_asc_node": 90.2248,
        "meta_arg_of_pericenter": 301.309,
        "meta_mean_anomaly": 58.7563,
        "meta_ephemeris_type": 0,
        "meta_classification_type": "U",
        "meta_norad_cat_id": 58662,
        "meta_element_set_no": 999,
        "meta_rev_at_epoch": 10748,
        "meta_bstar": 0.00048562,
        "meta_mean_motion_dot": 0.00014584,
        "meta_mean_motion_ddot": 0,
        "tle_line1": "1 58662U 23208C   25336.86346505  .00014584  00000+0  48562-3 0  9997",
        "tle_line2": "2 58662  97.4375  90.2248 0006003 301.3090  58.7563 15.31215503107484"
      },
      "geometry": {
        "type": "Point",
        "coordinates": [
          69.76839609222657,
          69.8001544305024
        ]
      }
    },
    {
      "type": "Feature",
      "properties": {
        "norad_id": 58663,
        "name": "TIANMU-1 22",
        "group": "weather",
        "lat": 51.684274952556926,
        "lon": -82.15850407555384,
        "alt_km": 480.9611915900223,
        "timestamp": "2025-12-03T04:52:29.284463+00:00",
        "meta_object_name": "TIANMU-1 22",
        "meta_object_id": "2023-208D",
        "meta_epoch": "2025-12-02T20:27:21.803616",
        "meta_mean_motion": 15.27335865,
        "meta_eccentricity": 0.0003111,
        "meta_inclination": 97.4385,
        "meta_ra_of_asc_node": 87.9747,
        "meta_arg_of_pericenter": 333.095,
        "meta_mean_anomaly": 27.0127,
        "meta_ephemeris_type": 0,
        "meta_classification_type": "U",
        "meta_norad_cat_id": 58663,
        "meta_element_set_no": 999,
        "meta_rev_at_epoch": 10732,
        "meta_bstar": 0.0004407,
        "meta_mean_motion_dot": 0.00011732,
        "meta_mean_motion_ddot": 0,
        "tle_line1": "1 58663U 23208D   25336.85233569  .00011732  00000+0  44070-3 0  9994",
        "tle_line2": "2 58663  97.4385  87.9747 0003111 333.0950  27.0127 15.27335865107324"
      },
      "geometry": {
        "type": "Point",
        "coordinates": [
          -82.15850407555384,
          51.684274952556926
        ]
      }
    },
    {
      "type": "Feature",
      "properties": {
        "norad_id": 58700,
        "name": "TIANMU-1 15",
        "group": "weather",
        "lat": -3.7248428443177977,
        "lon": 159.1960031850561,
        "alt_km": 492.163834703726,
        "timestamp": "2025-12-03T04:52:29.284473+00:00",
        "meta_object_name": "TIANMU-1 15",
        "meta_object_id": "2024-004A",
        "meta_epoch": "2025-12-02T21:00:52.565760",
        "meta_mean_motion": 15.24468796,
        "meta_eccentricity": 0.000582,
        "meta_inclination": 97.4626,
        "meta_ra_of_asc_node": 158.3809,
        "meta_arg_of_pericenter": 337.8339,
        "meta_mean_anomaly": 22.2646,
        "meta_ephemeris_type": 0,
        "meta_classification_type": "U",
        "meta_norad_cat_id": 58700,
        "meta_element_set_no": 999,
        "meta_rev_at_epoch": 10584,
        "meta_bstar": 0.0003766,
        "meta_mean_motion_dot": 9.185e-05,
        "meta_mean_motion_ddot": 0,
        "tle_line1": "1 58700U 24004A   25336.87560840  .00009185  00000+0  37660-3 0  9994",
        "tle_line2": "2 58700  97.4626 158.3809 0005820 337.8339  22.2646 15.24468796105843"
      },
      "geometry": {
        "type": "Point",
        "coordinates": [
          159.1960031850561,
          -3.7248428443177977
        ]
      }
    }
  ]
}